COMMENT,ORIGINATOR,NORAD_CAT_ID,OBJECT_NAME,OBJECT_TYPE,CLASSIFICATION_TYPE,INTLDES,EPOCH,EPOCH_MICROSECONDS,MEAN_MOTION,ECCENTRICITY,INCLINATION,RA_OF_ASC_NODE,ARG_OF_PERICENTER,MEAN_ANOMALY,EPHEMERIS_TYPE,ELEMENT_SET_NO,REV_AT_EPOCH,BSTAR,MEAN_MOTION_DOT,MEAN_MOTION_DDOT,FILE,TLE_LINE0,TLE_LINE1,TLE_LINE2,OBJECT_ID,OBJECT_NUMBER,SEMIMAJOR_AXIS,PERIOD,APOGEE,PERIGEE,DECAYED
"GENERATED VIA SPACETRACK.ORG API","18 SPCS","55095","SPACEBEE-162","PAYLOAD","U","23001CQ","2023-02-16 11:24:56","509056","15.15074444","0.0017332","97.4962","108.948","64.4744","295.8278","0","999","679","0.0014651","0.00027529","0","3798293","0 SPACEBEE-162","1 55095U 23001CQ  23047.47565404  .00027529  00000-0  14651-2 0  9995","2 55095  97.4962 108.9480 0017332  64.4744 295.8278 15.15074444  6796","2023-001CQ","55095","6898.890","95.045","532.712","508.797","0"
"GENERATED VIA SPACETRACK.ORG API","18 SPCS","55095","SPACEBEE-162","PAYLOAD","U","23001CQ","2023-02-17 03:15:58","845600","15.15112037","0.0017279","97.4958","109.5992","62.1808","298.1173","0","999","689","0.0014514","0.00027298","0","3800677","0 SPACEBEE-162","1 55095U 23001CQ  23048.13609775  .00027298  00000-0  14514-2 0  9990","2 55095  97.4958 109.5992 0017279  62.1808 298.1173 15.15112037  6894","2023-001CQ","55095","6898.775","95.042","532.561","508.720","0"
"GENERATED VIA SPACETRACK.ORG API","18 SPCS","55095","SPACEBEE-162","PAYLOAD","U","23001CQ","2023-02-17 09:36:23","431680","15.15119752","0.0017192","97.4959","109.8597","61.2943","299.0015","0","999","693","0.0010832","0.00020341","0","3802730","0 SPACEBEE-162","1 55095U 23001CQ  23048.40027120  .00020341  00000-0  10832-2 0  9999","2 55095  97.4959 109.8597 0017192  61.2943 299.0015 15.15119752  6934","2023-001CQ","55095","6898.752","95.042","532.477","508.757","0"
"GENERATED VIA SPACETRACK.ORG API","18 SPCS","55095","SPACEBEE-162","PAYLOAD","U","23001CQ","2023-02-18 04:37:36","363072","15.15148133","0.0017126","97.4955","110.6412","58.6544","301.6362","0","999","705","0.00087135","0.00016354","0","3805151","0 SPACEBEE-162","1 55095U 23001CQ  23049.19278198  .00016354  00000-0  87135-3 0  9999","2 55095  97.4955 110.6412 0017126  58.6544 301.6362 15.15148133  7054","2023-001CQ","55095","6898.666","95.040","532.346","508.716","0"
"GENERATED VIA SPACETRACK.ORG API","18 SPCS","55095","SPACEBEE-162","PAYLOAD","U","23001CQ","2023-02-18 14:08:12","375168","15.15162498","0.0017061","97.4955","111.032","57.4086","302.8791","0","999","711","0.00093742","0.00017608","0","3807124","0 SPACEBEE-162","1 55095U 23001CQ  23049.58903212  .00017608  00000-0  93742-3 0  9998","2 55095  97.4955 111.0320 0017061  57.4086 302.8791 15.15162498  7119","2023-001CQ","55095","6898.622","95.039","532.257","508.718","0"
"GENERATED VIA SPACETRACK.ORG API","18 SPCS","55095","SPACEBEE-162","PAYLOAD","U","23001CQ","2023-02-19 13:54:41","180256","15.15192027","0.0017085","97.4952","112.0087","54.1627","306.119","0","999","726","0.00081288","0.00015268","0","3811610","0 SPACEBEE-162","1 55095U 23001CQ  23050.57964329  .00015268  00000-0  81288-3 0  9997","2 55095  97.4952 112.0087 0017085  54.1627 306.1190 15.15192027  7265","2023-001CQ","55095","6898.533","95.037","532.184","508.612","0"
"GENERATED VIA SPACETRACK.ORG API","18 SPCS","55095","SPACEBEE-162","PAYLOAD","U","23001CQ","2023-02-19 15:29:47","38848","15.15194141","0.0017083","97.4952","112.0739","53.95","306.3312","0","999","727","0.00080982","0.00015211","0","3811394","0 SPACEBEE-162","1 55095U 23001CQ  23050.64568332  .00015211  00000-0  80982-3 0  9997","2 55095  97.4952 112.0739 0017083  53.9500 306.3312 15.15194141  7272","2023-001CQ","55095","6898.526","95.037","532.176","508.606","0"
"GENERATED VIA SPACETRACK.ORG API","18 SPCS","55095","SPACEBEE-162","PAYLOAD","U","23001CQ","2023-02-20 13:41:08","187360","15.15224115","0.0017085","97.4948","112.9853","50.8818","309.393","0","999","741","0.00083852","0.00015767","0","3815761","0 SPACEBEE-162","1 55095U 23001CQ  23051.57023365  .00015767  00000-0  83852-3 0  9997","2 55095  97.4948 112.9853 0017085  50.8818 309.3930 15.15224115  7413","2023-001CQ","55095","6898.435","95.035","532.086","508.514","0"
"GENERATED VIA SPACETRACK.ORG API","18 SPCS","55095","SPACEBEE-162","PAYLOAD","U","23001CQ","2023-02-20 23:11:42","494784","15.15236241","0.0017078","97.4946","113.3761","49.8336","310.4388","0","999","747","0.00082042","0.0001543","0","3817356","0 SPACEBEE-162","1 55095U 23001CQ  23051.96646406  .00015430  00000-0  82042-3 0  9994","2 55095  97.4946 113.3761 0017078  49.8336 310.4388 15.15236241  7478","2023-001CQ","55095","6898.398","95.035","532.045","508.482","0"
"GENERATED VIA SPACETRACK.ORG API","18 SPCS","55095","SPACEBEE-162","PAYLOAD","U","23001CQ","2023-02-21 10:17:22","120800","15.15252214","0.0017045","97.4944","113.832","48.3811","311.8878","0","999","754","0.0008706","0.00016387","0","3819803","0 SPACEBEE-162","1 55095U 23001CQ  23052.42872825  .00016387  00000-0  87060-3 0  9999","2 55095  97.4944 113.8320 0017045  48.3811 311.8878 15.15252214  7543","2023-001CQ","55095","6898.350","95.034","531.973","508.457","0"
"GENERATED VIA SPACETRACK.ORG API","18 SPCS","55095","SPACEBEE-162","PAYLOAD","U","23001CQ","2023-02-21 16:37:44","547744","15.1526356","0.0017051","97.4943","114.0923","47.5163","312.7507","0","999","758","0.00093364","0.00017587","0","3821329","0 SPACEBEE-162","1 55095U 23001CQ  23052.69287671  .00017587  00000-0  93364-3 0  9994","2 55095  97.4943 114.0923 0017051  47.5163 312.7507 15.15263560  7581","2023-001CQ","55095","6898.316","95.033","531.943","508.418","0"
"GENERATED VIA SPACETRACK.ORG API","18 SPCS","55095","SPACEBEE-162","PAYLOAD","U","23001CQ","2023-02-22 02:08:17","928960","15.15278483","0.0017005","97.4941","114.483","46.3017","313.9621","0","999","764","0.00095743","0.00018045","0","3822360","0 SPACEBEE-162","1 55095U 23001CQ  23053.08909640  .00018045  00000-0  95743-3 0  9998","2 55095  97.4941 114.4830 0017005  46.3017 313.9621 15.15278483  7641","2023-001CQ","55095","6898.270","95.032","531.866","508.405","0"
"GENERATED VIA SPACETRACK.ORG API","18 SPCS","55095","SPACEBEE-162","PAYLOAD","U","23001CQ","2023-02-22 03:43:23","456640","15.15279086","0.0017003","97.494","114.5481","46.0744","314.1888","0","999","765","0.00086394","0.00016273","0","3824148","0 SPACEBEE-162","1 55095U 23001CQ  23053.15513260  .00016273  00000-0  86394-3 0  9998","2 55095  97.4940 114.5481 0017003  46.0744 314.1888 15.15279086  7654","2023-001CQ","55095","6898.268","95.032","531.863","508.404","0"
"GENERATED VIA SPACETRACK.ORG API","18 SPCS","55095","SPACEBEE-162","PAYLOAD","U","23001CQ","2023-02-23 03:29:45","525984","15.15312523","0.0016881","97.4935","115.525","42.7662","317.488","0","999","780","0.00088277","0.00016645","0","3827309","0 SPACEBEE-162","1 55095U 23001CQ  23054.14566581  .00016645  00000-0  88277-3 0  9997","2 55095  97.4935 115.5250 0016881  42.7662 317.4880 15.15312523  7807","2023-001CQ","55095","6898.167","95.030","531.677","508.387","0"
"GENERATED VIA SPACETRACK.ORG API","18 SPCS","55095","SPACEBEE-162","PAYLOAD","U","23001CQ","2023-02-23 03:29:45","525984","15.15312523","0.0016881","97.4935","115.525","42.7662","317.488","0","999","780","0.00088277","0.00016645","0","3828819","0 SPACEBEE-162","1 55095U 23001CQ  23054.14566581  .00016645  00000-0  88277-3 0  9997","2 55095  97.4935 115.5250 0016881  42.7662 317.4880 15.15312523  7807","2023-001CQ","55095","6898.167","95.030","531.677","508.387","0"
"GENERATED VIA SPACETRACK.ORG API","18 SPCS","55095","SPACEBEE-162","PAYLOAD","U","23001CQ","2023-02-23 16:10:28","538688","15.15328521","0.0016808","97.4933","116.0459","40.938","319.3111","0","999","788","0.00084249","0.00015887","0","3830532","0 SPACEBEE-162","1 55095U 23001CQ  23054.67394142  .00015887  00000-0  84249-3 0  9999","2 55095  97.4933 116.0459 0016808  40.9380 319.3111 15.15328521  7889","2023-001CQ","55095","6898.118","95.029","531.578","508.389","0"
"GENERATED VIA SPACETRACK.ORG API","18 SPCS","55095","SPACEBEE-162","PAYLOAD","U","23001CQ","2023-02-24 09:36:26","753760","15.15355489","0.0016722","97.4929","116.7624","38.404","321.838","0","999","799","0.00093747","0.00017703","0","3832867","0 SPACEBEE-162","1 55095U 23001CQ  23055.40030965  .00017703  00000-0  93747-3 0  9993","2 55095  97.4929 116.7624 0016722  38.4040 321.8380 15.15355489  7996","2023-001CQ","55095","6898.037","95.027","531.436","508.367","0"
"GENERATED VIA SPACETRACK.ORG API","18 SPCS","55095","SPACEBEE-162","PAYLOAD","U","23001CQ","2023-02-24 15:56:47","710176","15.1536039","0.001667","97.4929","117.0228","37.335","322.9037","0","999","803","0.00075591","0.00014257","0","3833390","0 SPACEBEE-162","1 55095U 23001CQ  23055.66444109  .00014257  00000-0  75591-3 0  9998","2 55095  97.4929 117.0228 0016670  37.3350 322.9037 15.15360390  8038","2023-001CQ","55095","6898.022","95.027","531.386","508.388","0"
"GENERATED VIA SPACETRACK.ORG API","18 SPCS","55095","SPACEBEE-162","PAYLOAD","U","23001CQ","2023-02-24 17:31:52","929408","15.15362273","0.0016657","97.4929","117.0879","37.0725","323.1655","0","999","804","0.00074914","0.00014129","0","3835059","0 SPACEBEE-162","1 55095U 23001CQ  23055.73047372  .00014129  00000-0  74914-3 0  9993","2 55095  97.4929 117.0879 0016657  37.0725 323.1655 15.15362273  8040","2023-001CQ","55095","6898.016","95.027","531.371","508.391","0"
"GENERATED VIA SPACETRACK.ORG API","18 SPCS","55095","SPACEBEE-162","PAYLOAD","U","23001CQ","2023-02-25 03:02:24","74592","15.15373947","0.0016609","97.4929","117.4786","35.6289","324.6048","0","999","810","0.00071205","0.00013429","0","3837605","0 SPACEBEE-162","1 55095U 23001CQ  23056.12666753  .00013429  00000-0  71205-3 0  9999","2 55095  97.4929 117.4786 0016609  35.6289 324.6048 15.15373947  8106","2023-001CQ","55095","6897.981","95.026","531.302","508.389","0"
